{
    "links": {
        "self": "http://www.neowsapp.com/rest/v1/neo/54090619?api_key=iIulBulltgU6a56xZRHN4H3l9WmuAYTsLGpBGhQ2"
    },
    "id": "54090619",
    "neo_reference_id": "54090619",
    "name": "(2020 WH1)",
    "designation": "2020 WH1",
    "nasa_jpl_url": "http://ssd.jpl.nasa.gov/sbdb.cgi?sstr=54090619",
    "absolute_magnitude_h": 24.564,
    "estimated_diameter": {
        "kilometers": {
            "estimated_diameter_min": 0.0324903939,
            "estimated_diameter_max": 0.0726507294
        },
        "meters": {
            "estimated_diameter_min": 32.4903939018,
            "estimated_diameter_max": 72.6507293802
        },
        "miles": {
            "estimated_diameter_min": 0.0201885885,
            "estimated_diameter_max": 0.0451430564
        },
        "feet": {
            "estimated_diameter_min": 106.5957839289,
            "estimated_diameter_max": 238.3554189798
        }
    },
    "is_potentially_hazardous_asteroid": false,
    "close_approach_data": [
        {
            "close_approach_date": "2020-11-09",
            "close_approach_date_full": "2020-Nov-09 08:24",
            "epoch_date_close_approach": 1604910240000,
            "relative_velocity": {
                "kilometers_per_second": "8.2630763365",
                "kilometers_per_hour": "29747.0748115287",
                "miles_per_hour": "18483.6754571968"
            },
            "miss_distance": {
                "astronomical": "0.0297634694",
                "lunar": "11.5779895966",
                "kilometers": "4452551.626050178",
                "miles": "2766687.2874333364"
            },
            "orbiting_body": "Earth"
        }
    ],
    "orbital_data": {
        "orbit_id": "11",
        "orbit_determination_date": "2020-12-06 05:25:14",
        "first_observation_date": "2020-11-14",
        "last_observation_date": "2020-12-06",
        "data_arc_in_days": 22,
        "observations_used": 153,
        "orbit_uncertainty": "7",
        "minimum_orbit_intersection": ".0292381",
        "jupiter_tisserand_invariant": "3.729",
        "epoch_osculation": "2459000.5",
        "eccentricity": ".4877181790678784",
        "semi_major_axis": "1.949682903504329",
        "inclination": "7.368094816021028",
        "ascending_node_longitude": "233.8505717353268",
        "orbital_period": "994.3617317414072",
        "perihelion_distance": ".9987871080474237",
        "perihelion_argument": "154.9769119089381",
        "aphelion_distance": "2.900578698961235",
        "perihelion_time": "2459147.842291259992",
        "mean_anomaly": "306.6560074061744",
        "mean_motion": ".3620412858905367",
        "equinox": "J2000",
        "orbit_class": {
            "orbit_class_type": "APO",
            "orbit_class_description": "Near-Earth asteroid orbits which cross the Earth’s orbit similar to that of 1862 Apollo",
            "orbit_class_range": "a (semi-major axis) > 1.0 AU; q (perihelion) < 1.017 AU"
        }
    },
    "is_sentry_object": false
}